0 FENGYUN 1C DEB
1 29825U 99025DT  13282.43557713  .00014152  00000-0  14175-2 0  9973
2 29825 098.7723 107.3146 0197550 244.5410 178.6511 14.78038096360658
0 FENGYUN 1C DEB
1 29825U 99025DT  13283.05574753  .00012878  00000-0  12909-2 0  9982
2 29825 098.7725 107.9903 0197459 242.5932 238.5366 14.78047019360741
0 FENGYUN 1C DEB
1 29825U 99025DT  13284.07199530  .00013404  00000-0  13425-2 0  9992
2 29825 098.7722 109.0972 0197478 239.3396 246.0367 14.78064862360892
0 FENGYUN 1C DEB
1 29825U 99025DT  13285.47991760  .00010963  00000-0  10990-2 0    06
2 29825 098.7717 110.6307 0197433 234.8910 177.7225 14.78097250361104
0 FENGYUN 1C DEB
1 29825U 99025DT  13286.76844046  .00011917  00000-0  11929-2 0    17
2 29825 098.7713 112.0349 0197464 230.7888 194.2512 14.78121505361299
0 FENGYUN 1C DEB
1 29825U 99025DT  13288.06659896  .00019770  00000-0  19706-2 0    26
2 29825 098.7713 113.4491 0197362 226.6608 262.1677 14.78154575361484
0 FENGYUN 1C DEB
1 29825U 99025DT  13289.46936385  .00016165  00000-0  16123-2 0    38
2 29825 098.7712 114.9779 0197241 222.2348 166.8901 14.78195444361690
0 FENGYUN 1C DEB
1 29825U 99025DT  13290.48471762  .00016122  00000-0  16070-2 0    40
2 29825 098.7708 116.0842 0197219 219.0172 170.1637 14.78222694361842
0 FENGYUN 1C DEB
1 29825U 99025DT  13291.50476230  .00014862  00000-0  14813-2 0    52
2 29825 098.7712 117.1961 0197204 215.7988 198.4925 14.78247634361993
0 FENGYUN 1C DEB
1 29825U 99025DT  13292.52281317  .00015692  00000-0  15628-2 0    63
2 29825 098.7708 118.3047 0197090 212.5686 216.3231 14.78275208362145
0 FENGYUN 1C DEB
1 29825U 99025DT  13294.08951900  .00016230  00000-0  16140-2 0    78
2 29825 098.7710 120.0116 0197096 207.5826 274.1796 14.78320935362372
0 FENGYUN 1C DEB
1 29825U 99025DT  13295.49872035  .00017655  00000-0  17536-2 0    88
2 29825 098.7712 121.5470 0196964 203.1329 213.9948 14.78359706362587
